ONEWEB-0458             
1 51648U 22012AC  25308.31609025  .00003109  00000+0  88642-2 0  9997
2 51648  87.8790  81.0767 0002117  91.9303 268.2067 13.10398198179854
ONEWEB-0461             
1 51649U 22012AD  25308.30616160  .00000054  00000+0  10497-3 0  9995
2 51649  87.9137  50.5606 0001718  96.1759 263.9569 13.17650780184278
ONEWEB-0463             
1 51650U 22012AE  25308.28759330  .00000072  00000+0  15236-3 0  9997
2 51650  87.9119  50.6153 0001642 102.7397 257.3918 13.17651487184052
ONEWEB-0464             
1 51651U 22012AF  25308.31279863 -.00000332  00000+0 -98725-3 0  9995
2 51651  87.8781  81.1156 0001784 105.7327 254.3998 13.10370410179878
ONEWEB-0468             
1 51652U 22012AG  25308.09034996 -.00000626  00000+0 -18295-2 0  9996
2 51652  87.8782  81.1523 0001556 107.0029 253.1269 13.10372145179829
ONEWEB-0473             
1 51653U 22012AH  25308.30450389  .00000037  00000+0  68676-4 0  9993
2 51653  87.8783  81.1133 0001531 103.0978 257.0320 13.10370239179856
ONEWEB-0474             
1 51654U 22012AJ  25308.29621442  .00000438  00000+0  12172-2 0  9995
2 51654  87.8789  81.0784 0001685 108.8395 251.2916 13.10371116179841
ONEWEB-0475             
1 51655U 22012AK  25308.29940708  .00000044  00000+0  79214-4 0  9990
2 51655  87.9126  50.5988 0001773 127.5674 232.5619 13.17651122184079
ONEWEB-0490             
1 54113U 22138A   25308.18615005 -.00000042  00000+0 -13779-3 0  9991
2 54113  87.9244 349.7219 0002050 101.2291 258.9072 13.19725204147153
ONEWEB-0492             
1 54114U 22138B   25308.13561934  .00001299  00000+0  32119-2 0  9999
2 54114  87.9235 349.7505 0001794 102.8275 257.3058 13.19720900147150
ONEWEB-0495             
1 54115U 22138C   25308.18931041  .00000087  00000+0  18549-3 0  9991
2 54115  87.9228 349.7452 0002381 111.9034 248.2352 13.19725102147145
ONEWEB-0497             
1 54116U 22138D   25308.12614143  .00000058  00000+0  11336-3 0  9992
2 54116  87.9237 349.7412 0001968  98.9284 261.2071 13.19725692147128
ONEWEB-0499             
1 54117U 22138E   25308.18537909  .00000018  00000+0  13436-4 0  9993
2 54117  87.9232 349.7434 0001845 103.0164 257.1175 13.19725294147146
ONEWEB-0500             
1 54118U 22138F   25308.18774370  .00000036  00000+0  56415-4 0  9993
2 54118  87.9235 349.7302 0001958  95.0834 265.0522 13.19725719147150
ONEWEB-0501             
1 54119U 22138G   25308.14194079  .00000140  00000+0  31657-3 0  9998
2 54119  87.9245 349.7344 0002107 106.5403 253.5961 13.19726881147122
ONEWEB-0502             
1 54120U 22138H   25308.12771875  .00000054  00000+0  10249-3 0  9991
2 54120  87.9242 349.7197 0001908 105.3674 254.7670 13.19726635147141
