[{"OBJECT_NAME":"ONEWEB-0458","OBJECT_ID":"2022-012AC","EPOCH":"2025-11-04T07:35:10.197600","MEAN_MOTION":13.10398198,"ECCENTRICITY":0.00021175,"INCLINATION":87.879,"RA_OF_ASC_NODE":81.0767,"ARG_OF_PERICENTER":91.9303,"MEAN_ANOMALY":268.2067,"EPHEMERIS_TYPE":0,"CLASSIFICATION_TYPE":"U","NORAD_CAT_ID":51648,"ELEMENT_SET_NO":999,"REV_AT_EPOCH":17985,"BSTAR":0.0088642144,"MEAN_MOTION_DOT":3.109e-5,"MEAN_MOTION_DDOT":0},{"OBJECT_NAME":"ONEWEB-0461","OBJECT_ID":"2022-012AD","EPOCH":"2025-11-04T07:20:52.362240","MEAN_MOTION":13.1765078,"ECCENTRICITY":0.00017182,"INCLINATION":87.9137,"RA_OF_ASC_NODE":50.5606,"ARG_OF_PERICENTER":96.1759,"MEAN_ANOMALY":263.9569,"EPHEMERIS_TYPE":0,"CLASSIFICATION_TYPE":"U","NORAD_CAT_ID":51649,"ELEMENT_SET_NO":999,"REV_AT_EPOCH":18427,"BSTAR":0.00010497136,"MEAN_MOTION_DOT":5.4e-7,"MEAN_MOTION_DDOT":0},{"OBJECT_NAME":"ONEWEB-0463","OBJECT_ID":"2022-012AE","EPOCH":"2025-11-04T06:54:08.061120","MEAN_MOTION":13.17651487,"ECCENTRICITY":0.0001642,"INCLINATION":87.9119,"RA_OF_ASC_NODE":50.6153,"ARG_OF_PERICENTER":102.7397,"MEAN_ANOMALY":257.3918,"EPHEMERIS_TYPE":0,"CLASSIFICATION_TYPE":"U","NORAD_CAT_ID":51650,"ELEMENT_SET_NO":999,"REV_AT_EPOCH":18405,"BSTAR":0.00015236152,"MEAN_MOTION_DOT":7.2e-7,"MEAN_MOTION_DDOT":0},{"OBJECT_NAME":"ONEWEB-0464","OBJECT_ID":"2022-012AF","EPOCH":"2025-11-04T07:30:25.801632","MEAN_MOTION":13.1037041,"ECCENTRICITY":0.00017842,"INCLINATION":87.8781,"RA_OF_ASC_NODE":81.1156,"ARG_OF_PERICENTER":105.7327,"MEAN_ANOMALY":254.3998,"EPHEMERIS_TYPE":0,"CLASSIFICATION_TYPE":"U","NORAD_CAT_ID":51651,"ELEMENT_SET_NO":999,"REV_AT_EPOCH":17987,"BSTAR":-0.00098725097,"MEAN_MOTION_DOT":-3.32e-6,"MEAN_MOTION_DDOT":0},{"OBJECT_NAME":"ONEWEB-0468","OBJECT_ID":"2022-012AG","EPOCH":"2025-11-04T02:10:06.236544","MEAN_MOTION":13.10372145,"ECCENTRICITY":0.00015561,"INCLINATION":87.8782,"RA_OF_ASC_NODE":81.1523,"ARG_OF_PERICENTER":107.0029,"MEAN_ANOMALY":253.1269,"EPHEMERIS_TYPE":0,"CLASSIFICATION_TYPE":"U","NORAD_CAT_ID":51652,"ELEMENT_SET_NO":999,"REV_AT_EPOCH":17982,"BSTAR":-0.0018295061,"MEAN_MOTION_DOT":-6.26e-6,"MEAN_MOTION_DDOT":0},{"OBJECT_NAME":"ONEWEB-0473","OBJECT_ID":"2022-012AH","EPOCH":"2025-11-04T07:18:29.136096","MEAN_MOTION":13.10370239,"ECCENTRICITY":0.00015315,"INCLINATION":87.8783,"RA_OF_ASC_NODE":81.1133,"ARG_OF_PERICENTER":103.0978,"MEAN_ANOMALY":257.032,"EPHEMERIS_TYPE":0,"CLASSIFICATION_TYPE":"U","NORAD_CAT_ID":51653,"ELEMENT_SET_NO":999,"REV_AT_EPOCH":17985,"BSTAR":6.8676252e-5,"MEAN_MOTION_DOT":3.7e-7,"MEAN_MOTION_DDOT":0},{"OBJECT_NAME":"ONEWEB-0474","OBJECT_ID":"2022-012AJ","EPOCH":"2025-11-04T07:06:32.925888","MEAN_MOTION":13.10371116,"ECCENTRICITY":0.00016854,"INCLINATION":87.8789,"RA_OF_ASC_NODE":81.0784,"ARG_OF_PERICENTER":108.8395,"MEAN_ANOMALY":251.2916,"EPHEMERIS_TYPE":0,"CLASSIFICATION_TYPE":"U","NORAD_CAT_ID":51654,"ELEMENT_SET_NO":999,"REV_AT_EPOCH":17984,"BSTAR":0.001217243,"MEAN_MOTION_DOT":4.38e-6,"MEAN_MOTION_DDOT":0},{"OBJECT_NAME":"ONEWEB-0475","OBJECT_ID":"2022-012AK","EPOCH":"2025-11-04T07:11:08.771712","MEAN_MOTION":13.17651122,"ECCENTRICITY":0.00017739,"INCLINATION":87.9126,"RA_OF_ASC_NODE":50.5988,"ARG_OF_PERICENTER":127.5674,"MEAN_ANOMALY":232.5619,"EPHEMERIS_TYPE":0,"CLASSIFICATION_TYPE":"U","NORAD_CAT_ID":51655,"ELEMENT_SET_NO":999,"REV_AT_EPOCH":18407,"BSTAR":7.921365e-5,"MEAN_MOTION_DOT":4.4e-7,"MEAN_MOTION_DDOT":0},{"OBJECT_NAME":"ONEWEB-0490","OBJECT_ID":"2022-138A","EPOCH":"2025-11-04T04:28:03.364320","MEAN_MOTION":13.19725204,"ECCENTRICITY":0.00020502,"INCLINATION":87.9244,"RA_OF_ASC_NODE":349.7219,"ARG_OF_PERICENTER":101.2291,"MEAN_ANOMALY":258.9072,"EPHEMERIS_TYPE":0,"CLASSIFICATION_TYPE":"U","NORAD_CAT_ID":54113,"ELEMENT_SET_NO":999,"REV_AT_EPOCH":14715,"BSTAR":-0.0001377932,"MEAN_MOTION_DOT":-4.2e-7,"MEAN_MOTION_DDOT":0},{"OBJECT_NAME":"ONEWEB-0492","OBJECT_ID":"2022-138B","EPOCH":"2025-11-04T03:15:17.510976","MEAN_MOTION":13.197209,"ECCENTRICITY":0.0001794,"INCLINATION":87.9235,"RA_OF_ASC_NODE":349.7505,"ARG_OF_PERICENTER":102.8275,"MEAN_ANOMALY":257.3058,"EPHEMERIS_TYPE":0,"CLASSIFICATION_TYPE":"U","NORAD_CAT_ID":54114,"ELEMENT_SET_NO":999,"REV_AT_EPOCH":14715,"BSTAR":0.0032119287,"MEAN_MOTION_DOT":1.299e-5,"MEAN_MOTION_DDOT":0},{"OBJECT_NAME":"ONEWEB-0495","OBJECT_ID":"2022-138C","EPOCH":"2025-11-04T04:32:36.419424","MEAN_MOTION":13.19725102,"ECCENTRICITY":0.00023815,"INCLINATION":87.9228,"RA_OF_ASC_NODE":349.7452,"ARG_OF_PERICENTER":111.9034,"MEAN_ANOMALY":248.2352,"EPHEMERIS_TYPE":0,"CLASSIFICATION_TYPE":"U","NORAD_CAT_ID":54115,"ELEMENT_SET_NO":999,"REV_AT_EPOCH":14714,"BSTAR":0.00018549492,"MEAN_MOTION_DOT":8.7e-7,"MEAN_MOTION_DDOT":0},{"OBJECT_NAME":"ONEWEB-0497","OBJECT_ID":"2022-138D","EPOCH":"2025-11-04T03:01:38.619552","MEAN_MOTION":13.19725692,"ECCENTRICITY":0.0001968,"INCLINATION":87.9237,"RA_OF_ASC_NODE":349.7412,"ARG_OF_PERICENTER":98.9284,"MEAN_ANOMALY":261.2071,"EPHEMERIS_TYPE":0,"CLASSIFICATION_TYPE":"U","NORAD_CAT_ID":54116,"ELEMENT_SET_NO":999,"REV_AT_EPOCH":14712,"BSTAR":0.00011335884,"MEAN_MOTION_DOT":5.8e-7,"MEAN_MOTION_DDOT":0},{"OBJECT_NAME":"ONEWEB-0499","OBJECT_ID":"2022-138E","EPOCH":"2025-11-04T04:26:56.753376","MEAN_MOTION":13.19725294,"ECCENTRICITY":0.00018459,"INCLINATION":87.9232,"RA_OF_ASC_NODE":349.7434,"ARG_OF_PERICENTER":103.0164,"MEAN_ANOMALY":257.1175,"EPHEMERIS_TYPE":0,"CLASSIFICATION_TYPE":"U","NORAD_CAT_ID":54117,"ELEMENT_SET_NO":999,"REV_AT_EPOCH":14714,"BSTAR":1.3436116e-5,"MEAN_MOTION_DOT":1.8e-7,"MEAN_MOTION_DDOT":0},{"OBJECT_NAME":"ONEWEB-0500","OBJECT_ID":"2022-138F","EPOCH":"2025-11-04T04:30:21.055680","MEAN_MOTION":13.19725719,"ECCENTRICITY":0.00019586,"INCLINATION":87.9235,"RA_OF_ASC_NODE":349.7302,"ARG_OF_PERICENTER":95.0834,"MEAN_ANOMALY":265.0522,"EPHEMERIS_TYPE":0,"CLASSIFICATION_TYPE":"U","NORAD_CAT_ID":54118,"ELEMENT_SET_NO":999,"REV_AT_EPOCH":14715,"BSTAR":5.6414675e-5,"MEAN_MOTION_DOT":3.6e-7,"MEAN_MOTION_DDOT":0},{"OBJECT_NAME":"ONEWEB-0501","OBJECT_ID":"2022-138G","EPOCH":"2025-11-04T03:24:23.684256","MEAN_MOTION":13.19726881,"ECCENTRICITY":0.00021075,"INCLINATION":87.9245,"RA_OF_ASC_NODE":349.7344,"ARG_OF_PERICENTER":106.5403,"MEAN_ANOMALY":253.5961,"EPHEMERIS_TYPE":0,"CLASSIFICATION_TYPE":"U","NORAD_CAT_ID":54119,"ELEMENT_SET_NO":999,"REV_AT_EPOCH":14712,"BSTAR":0.00031657254,"MEAN_MOTION_DOT":1.4e-6,"MEAN_MOTION_DDOT":0},{"OBJECT_NAME":"ONEWEB-0502","OBJECT_ID":"2022-138H","EPOCH":"2025-11-04T03:03:54.900000","MEAN_MOTION":13.19726635,"ECCENTRICITY":0.00019081,"INCLINATION":87.9242,"RA_OF_ASC_NODE":349.7197,"ARG_OF_PERICENTER":105.3674,"MEAN_ANOMALY":254.767,"EPHEMERIS_TYPE":0,"CLASSIFICATION_TYPE":"U","NORAD_CAT_ID":54120,"ELEMENT_SET_NO":999,"REV_AT_EPOCH":14714,"BSTAR":0.00010248674,"MEAN_MOTION_DOT":5.4e-7,"MEAN_MOTION_DDOT":0}]
